LEMUR-1                 
1 40044U 14033AL  26168.15920110  .00001812  00000+0  21288-3 0  9990
2 40044  97.7879 317.9645 0049682  78.7557 281.9237 14.85246789645465
LEMUR-2-GREENBERG       
1 42837U 17042N   26168.02167520  .00013546  00000+0  44950-3 0  9997
2 42837  97.3814 348.6466 0008550  14.6449 345.5038 15.31323939488367
LEMUR-2-ANDIS           
1 42838U 17042P   26168.05134780  .00018164  00000+0  53887-3 0  9993
2 42838  97.3672 348.8597 0008175  12.8795 347.2655 15.34838886488431
LEMUR-2-MONSON          
1 42839U 17042Q   26168.03008536  .00011919  00000+0  43849-3 0  9999
2 42839  97.4075 348.6276 0006236   6.8377 353.2946 15.28007494488141
LEMUR-2-FURIAUS         
1 42840U 17042R   26168.01535253  .00014639  00000+0  50194-3 0  9993
2 42840  97.3766 346.5958 0008197  69.8160 290.3962 15.30247793488184
LEMUR-2-PETERG          
1 42841U 17042S   26168.03540787  .00016987  00000+0  52017-3 0  9998
2 42841  97.3985 353.0648 0003256 357.6874   2.4353 15.33879051488411
LEMUR-2-DEMBITZ         
1 42842U 17042T   26168.03523867  .00013875  00000+0  47548-3 0  9995
2 42842  97.3821 349.6394 0006774  29.3513 330.8107 15.30289865488321
LEMUR-2-ZACHARY         
1 42845U 17042W   26167.80273207  .00037414  00000+0  66161-3 0  9999
2 42845  97.3589 359.4309 0002924  34.4782 325.6659 15.50232069489149
LEMUR-2-AMANDA-SVANTE   
1 48269U 21034B   26167.96617174  .00028649  00000+0  86325-3 0  9997
2 48269  97.5764 246.2458 0002289 208.4308 151.6809 15.34286546281023
LEMUR-2-SPECIAL-K       
1 48273U 21034F   26167.70162900  .00127030  00000+0  13126-2 0  9998
2 48273  97.5653 254.5237 0004202 229.5026 130.5867 15.64338135281610
LEMUR-2-EMBRIONOVIS     
1 56970U 23084AQ  26168.20172404  .00010555  00000+0  28854-3 0  9992
2 56970  97.6296 312.4010 0007735 320.0854  39.9821 15.37548017167684
LEMUR-2-DEVERILL-M-T    
1 57391U 23100F   26168.03986424  .00023898  00000+0  60519-3 0  9993
2 57391  99.4463 206.7553 0006340  50.5379 309.6420 15.39749302161221
LEMUR-2-BASS            
1 58259U 23174D   26167.95087255  .00014780  00000+0  33581-3 0  9991
2 58259  97.3852 252.6596 0007720 162.9221 197.2288 15.43088532145320
LEMUR-2-JK0903EM1407    
1 58336U 23174CJ  26167.75681777  .00022153  00000+0  37361-3 0  9997
2 58336  97.3927 258.2139 0005786 121.1436 239.0384 15.51662320145660
LEMUR-2-MJR092620       
1 58340U 23174CN  26167.96444625  .00016268  00000+0  34794-3 0  9991
2 58340  97.3982 257.9890 0007118 118.4366 241.7601 15.44868876145611
LEMUR-2-NIMBUS2000      
1 58899U 24022A   26168.07880339  .00013252  00000+0  33358-3 0  9997
2 58899  97.4103  18.0787 0010343 116.1796 244.0514 15.39992646132255
LEMUR-2-VALHALLA        
1 58900U 24022B   26168.07499956  .00012354  00000+0  31442-3 0  9995
2 58900  97.4101  18.0653 0010866 112.3416 247.8982 15.39668738132257
LEMUR-2-CAEL            
1 58903U 24022E   26168.08492002  .00013625  00000+0  33218-3 0  9999
2 58903  97.4082  19.0111 0009270  97.7352 262.4947 15.40971325132323
LEMUR-2-JOHNNYTRUONG    
1 59146U 24043BA  26168.15004626  .00033823  00000+0  41160-3 0  9998
2 59146  97.5381 319.8501 0004820 176.5008 183.6283 15.60461745128032
LEMUR-2-TOMATOKECHUP    
1 60471U 24149D   26167.97704351  .00009737  00000+0  27977-3 0  9996
2 60471  97.3803 250.0230 0001440 175.8194 184.3062 15.36030247102138
LEMUR-2-STELLA          
1 60533U 24149BT  26168.01558471  .00009791  00000+0  57676-3 0  9990
2 60533  97.6741 250.4696 0001731  96.2251 263.9176 15.11809926100470
LEMUR-2-MARHISYAM       
1 60536U 24149BW  26168.19447272  .00008653  00000+0  51802-3 0  9999
2 60536  97.6879 251.0980 0003283 118.3430 241.8131 15.11260695100488
LEMUR-2-AHMED-ASRAR     
1 60576U 24149DN  26168.03016367  .00010107  00000+0  58055-3 0  9997
2 60576  97.7011 253.0253 0001891  44.9208 315.2175 15.12712889100545
LEMUR-2-LLOYD           
1 60577U 24149DP  26168.04228244  .00009606  00000+0  60720-3 0  9992
2 60577  97.6748 249.1706 0004788 141.0187 219.1387 15.09237949100377
LEMUR-2-SQUIRRELCOMM    
1 60578U 24149DQ  26167.98986179  .00004787  00000+0  32251-3 0  9996
2 60578  97.6708 248.9015 0006360  62.0952 298.0918 15.07147650100377
LEMUR-2-SIERRINI        
1 60579U 24149DR  26167.95310162  .00009227  00000+0  55674-3 0  9995
2 60579  97.6846 250.5441 0005861 164.5391 195.6019 15.10944734100425
LEMUR-2-WILSON          
1 62694U 25009CP  26167.76038494  .00002282  00000+0  21298-3 0  9994
2 62694  97.7025 246.2323 0004260  59.6213 300.5428 14.95163613 77295
LEMUR-2-STAR-FOX        
1 62696U 25009CR  26167.95958684  .00006705  00000+0  50925-3 0  9992
2 62696  97.6956 249.5696 0003834 112.1849 247.9782 15.02502837 77521
LEMUR-2-ARIANNA         
1 62699U 25009CU  26168.02452144  .00006720  00000+0  51061-3 0  9993
2 62699  97.6896 249.4091 0004214 117.5859 242.5794 15.02485090 77534
LEMUR-2-ALISIA          
1 62706U 25009DB  26167.73611669  .00005865  00000+0  44306-3 0  9991
2 62706  97.6956 249.9090 0001968 191.4316 168.6864 15.02764457100097
